{
  "type": "FeatureCollection",
  "features": [
    {
      "type": "Feature",
      "properties": {
        "norad_id": 24946,
        "name": "IRIDIUM 33",
        "group": "iridium-33-debris",
        "lat": -14.832021004177676,
        "lon": -108.24614318807551,
        "alt_km": 775.7560484495934,
        "timestamp": "2025-12-06T14:35:37.510573+00:00",
        "meta_object_name": "IRIDIUM 33",
        "meta_object_id": "1997-051C",
        "meta_epoch": "2025-12-06T05:19:16.082688",
        "meta_mean_motion": 14.35030019,
        "meta_eccentricity": 0.00063598,
        "meta_inclination": 86.387,
        "meta_ra_of_asc_node": 70.9573,
        "meta_arg_of_pericenter": 225.1347,
        "meta_mean_anomaly": 134.9333,
        "meta_ephemeris_type": 0,
        "meta_classification_type": "U",
        "meta_norad_cat_id": 24946,
        "meta_element_set_no": 999,
        "meta_rev_at_epoch": 47741,
        "meta_bstar": 0.000227157,
        "meta_mean_motion_dot": 6.66e-06,
        "meta_mean_motion_ddot": 0,
        "tle_line1": "1 24946U 97051C   25340.22171392  .00000666  00000+0  22716-3 0  9996",
        "tle_line2": "2 24946  86.3870  70.9573 0006359 225.1347 134.9333 14.35030019477412"
      },
      "geometry": {
        "type": "Point",
        "coordinates": [
          -108.24614318807551,
          -14.832021004177676
        ]
      }
    },
    {
      "type": "Feature",
      "properties": {
        "norad_id": 33773,
        "name": "IRIDIUM 33 DEB",
        "group": "iridium-33-debris",
        "lat": -29.263687625803367,
        "lon": 61.16715428536193,
        "alt_km": 761.9942490161184,
        "timestamp": "2025-12-06T14:35:37.510608+00:00",
        "meta_object_name": "IRIDIUM 33 DEB",
        "meta_object_id": "1997-051L",
        "meta_epoch": "2025-12-05T23:45:13.439232",
        "meta_mean_motion": 14.43234008,
        "meta_eccentricity": 0.0011835,
        "meta_inclination": 86.4017,
        "meta_ra_of_asc_node": 63.4497,
        "meta_arg_of_pericenter": 166.7943,
        "meta_mean_anomaly": 193.357,
        "meta_ephemeris_type": 0,
        "meta_classification_type": "U",
        "meta_norad_cat_id": 33773,
        "meta_element_set_no": 999,
        "meta_rev_at_epoch": 88250,
        "meta_bstar": 0.00066391779,
        "meta_mean_motion_dot": 2.254e-05,
        "meta_mean_motion_ddot": 0,
        "tle_line1": "1 33773U 97051L   25339.98973888  .00002254  00000+0  66392-3 0  9998",
        "tle_line2": "2 33773  86.4017  63.4497 0011835 166.7943 193.3570 14.43234008882508"
      },
      "geometry": {
        "type": "Point",
        "coordinates": [
          61.16715428536193,
          -29.263687625803367
        ]
      }
    },
    {
      "type": "Feature",
      "properties": {
        "norad_id": 33775,
        "name": "IRIDIUM 33 DEB",
        "group": "iridium-33-debris",
        "lat": 84.93373229042574,
        "lon": -173.65319228771068,
        "alt_km": 744.6405689367948,
        "timestamp": "2025-12-06T14:35:37.510631+00:00",
        "meta_object_name": "IRIDIUM 33 DEB",
        "meta_object_id": "1997-051N",
        "meta_epoch": "2025-12-05T17:05:17.332224",
        "meta_mean_motion": 14.41444642,
        "meta_eccentricity": 0.00134808,
        "meta_inclination": 86.3642,
        "meta_ra_of_asc_node": 52.5534,
        "meta_arg_of_pericenter": 176.816,
        "meta_mean_anomaly": 309.9384,
        "meta_ephemeris_type": 0,
        "meta_classification_type": "U",
        "meta_norad_cat_id": 33775,
        "meta_element_set_no": 999,
        "meta_rev_at_epoch": 88039,
        "meta_bstar": 0.00063125965,
        "meta_mean_motion_dot": 2.068e-05,
        "meta_mean_motion_ddot": 0,
        "tle_line1": "1 33775U 97051N   25339.71200616  .00002068  00000+0  63126-3 0  9998",
        "tle_line2": "2 33775  86.3642  52.5534 0013480 176.8160 309.9384 14.41444642880393"
      },
      "geometry": {
        "type": "Point",
        "coordinates": [
          -173.65319228771068,
          84.93373229042574
        ]
      }
    },
    {
      "type": "Feature",
      "properties": {
        "norad_id": 33776,
        "name": "IRIDIUM 33 DEB",
        "group": "iridium-33-debris",
        "lat": 34.4252361374304,
        "lon": 85.82100710835024,
        "alt_km": 771.9545857899102,
        "timestamp": "2025-12-06T14:35:37.510643+00:00",
        "meta_object_name": "IRIDIUM 33 DEB",
        "meta_object_id": "1997-051P",
        "meta_epoch": "2025-12-06T01:52:47.091648",
        "meta_mean_motion": 14.38214092,
        "meta_eccentricity": 0.00136142,
        "meta_inclination": 86.4036,
        "meta_ra_of_asc_node": 83.573,
        "meta_arg_of_pericenter": 213.2162,
        "meta_mean_anomaly": 320.3072,
        "meta_ephemeris_type": 0,
        "meta_classification_type": "U",
        "meta_norad_cat_id": 33776,
        "meta_element_set_no": 999,
        "meta_rev_at_epoch": 87986,
        "meta_bstar": 0.00054139053,
        "meta_mean_motion_dot": 1.665e-05,
        "meta_mean_motion_ddot": 0,
        "tle_line1": "1 33776U 97051P   25340.07832282  .00001665  00000+0  54139-3 0  9996",
        "tle_line2": "2 33776  86.4036  83.5730 0013614 213.2162 320.3072 14.38214092879862"
      },
      "geometry": {
        "type": "Point",
        "coordinates": [
          85.82100710835024,
          34.4252361374304
        ]
      }
    },
    {
      "type": "Feature",
      "properties": {
        "norad_id": 33777,
        "name": "IRIDIUM 33 DEB",
        "group": "iridium-33-debris",
        "lat": 20.07755104303297,
        "lon": -143.45540704509946,
        "alt_km": 709.4921421707813,
        "timestamp": "2025-12-06T14:35:37.510656+00:00",
        "meta_object_name": "IRIDIUM 33 DEB",
        "meta_object_id": "1997-051Q",
        "meta_epoch": "2025-12-06T02:18:43.228224",
        "meta_mean_motion": 14.55537438,
        "meta_eccentricity": 0.00051038,
        "meta_inclination": 86.379,
        "meta_ra_of_asc_node": 38.0933,
        "meta_arg_of_pericenter": 280.4067,
        "meta_mean_anomaly": 79.6565,
        "meta_ephemeris_type": 0,
        "meta_classification_type": "U",
        "meta_norad_cat_id": 33777,
        "meta_element_set_no": 999,
        "meta_rev_at_epoch": 88437,
        "meta_bstar": 0.0015308345,
        "meta_mean_motion_dot": 6.689e-05,
        "meta_mean_motion_ddot": 0,
        "tle_line1": "1 33777U 97051Q   25340.09633366  .00006689  00000+0  15308-2 0  9996",
        "tle_line2": "2 33777  86.3790  38.0933 0005103 280.4067  79.6565 14.55537438884377"
      },
      "geometry": {
        "type": "Point",
        "coordinates": [
          -143.45540704509946,
          20.07755104303297
        ]
      }
    },
    {
      "type": "Feature",
      "properties": {
        "norad_id": 33850,
        "name": "IRIDIUM 33 DEB",
        "group": "iridium-33-debris",
        "lat": 59.249558501703035,
        "lon": 38.98848632208963,
        "alt_km": 749.9788685576777,
        "timestamp": "2025-12-06T14:35:37.510668+00:00",
        "meta_object_name": "IRIDIUM 33 DEB",
        "meta_object_id": "1997-051T",
        "meta_epoch": "2025-12-05T15:32:06.083232",
        "meta_mean_motion": 14.42123822,
        "meta_eccentricity": 0.00115072,
        "meta_inclination": 86.3424,
        "meta_ra_of_asc_node": 33.2293,
        "meta_arg_of_pericenter": 183.1131,
        "meta_mean_anomaly": 291.637,
        "meta_ephemeris_type": 0,
        "meta_classification_type": "U",
        "meta_norad_cat_id": 33850,
        "meta_element_set_no": 999,
        "meta_rev_at_epoch": 88050,
        "meta_bstar": 0.00076178787,
        "meta_mean_motion_dot": 2.525e-05,
        "meta_mean_motion_ddot": 0,
        "tle_line1": "1 33850U 97051T   25339.64729263  .00002525  00000+0  76179-3 0  9998",
        "tle_line2": "2 33850  86.3424  33.2293 0011507 183.1131 291.6370 14.42123822880500"
      },
      "geometry": {
        "type": "Point",
        "coordinates": [
          38.98848632208963,
          59.249558501703035
        ]
      }
    },
    {
      "type": "Feature",
      "properties": {
        "norad_id": 33853,
        "name": "IRIDIUM 33 DEB",
        "group": "iridium-33-debris",
        "lat": -45.219783785941175,
        "lon": -11.542842039633967,
        "alt_km": 826.2862169640757,
        "timestamp": "2025-12-06T14:35:37.510680+00:00",
        "meta_object_name": "IRIDIUM 33 DEB",
        "meta_object_id": "1997-051W",
        "meta_epoch": "2025-12-06T01:20:40.145280",
        "meta_mean_motion": 13.98996875,
        "meta_eccentricity": 0.02068178,
        "meta_inclination": 85.9999,
        "meta_ra_of_asc_node": 352.7424,
        "meta_arg_of_pericenter": 256.5072,
        "meta_mean_anomaly": 157.5204,
        "meta_ephemeris_type": 0,
        "meta_classification_type": "U",
        "meta_norad_cat_id": 33853,
        "meta_element_set_no": 999,
        "meta_rev_at_epoch": 85252,
        "meta_bstar": 0.0034440832,
        "meta_mean_motion_dot": 5.992e-05,
        "meta_mean_motion_ddot": 0,
        "tle_line1": "1 33853U 97051W   25340.05602020  .00005992  00000+0  34441-2 0  9995",
        "tle_line2": "2 33853  85.9999 352.7424 0206817 256.5072 157.5204 13.98996875852522"
      },
      "geometry": {
        "type": "Point",
        "coordinates": [
          -11.542842039633967,
          -45.219783785941175
        ]
      }
    }
  ]
}